{
    "links": {
        "self": "http://www.neowsapp.com/rest/v1/neo/3831878?api_key=iIulBulltgU6a56xZRHN4H3l9WmuAYTsLGpBGhQ2"
    },
    "id": "3831878",
    "neo_reference_id": "3831878",
    "name": "(2018 UH)",
    "designation": "2018 UH",
    "nasa_jpl_url": "http://ssd.jpl.nasa.gov/sbdb.cgi?sstr=3831878",
    "absolute_magnitude_h": 23.8,
    "estimated_diameter": {
        "kilometers": {
            "estimated_diameter_min": 0.046190746,
            "estimated_diameter_max": 0.1032856481
        },
        "meters": {
            "estimated_diameter_min": 46.1907460282,
            "estimated_diameter_max": 103.2856480504
        },
        "miles": {
            "estimated_diameter_min": 0.0287015901,
            "estimated_diameter_max": 0.0641787064
        },
        "feet": {
            "estimated_diameter_min": 151.544447199,
            "estimated_diameter_max": 338.8636855496
        }
    },
    "is_potentially_hazardous_asteroid": false,
    "close_approach_data": [
        {
            "close_approach_date": "2018-10-08",
            "close_approach_date_full": "2018-Oct-08 12:48",
            "epoch_date_close_approach": 1539002880000,
            "relative_velocity": {
                "kilometers_per_second": "14.4418391606",
                "kilometers_per_hour": "51990.6209781715",
                "miles_per_hour": "32304.9500183533"
            },
            "miss_distance": {
                "astronomical": "0.031902638",
                "lunar": "12.410126182",
                "kilometers": "4772566.69218106",
                "miles": "2965535.428816228"
            },
            "orbiting_body": "Earth"
        }
    ],
    "orbital_data": {
        "orbit_id": "8",
        "orbit_determination_date": "2020-11-19 05:21:20",
        "first_observation_date": "2018-10-17",
        "last_observation_date": "2018-11-02",
        "data_arc_in_days": 16,
        "observations_used": 34,
        "orbit_uncertainty": "7",
        "minimum_orbit_intersection": ".0135012",
        "jupiter_tisserand_invariant": "3.147",
        "epoch_osculation": "2459000.5",
        "eccentricity": ".6098107383419469",
        "semi_major_axis": "2.47866014694786",
        "inclination": "16.77486777749454",
        "ascending_node_longitude": "13.45497577538505",
        "orbital_period": "1425.357820550409",
        "perihelion_distance": ".9671465726388269",
        "perihelion_argument": "330.9596341772485",
        "aphelion_distance": "3.990173721256893",
        "perihelion_time": "2458377.367612205443",
        "mean_anomaly": "157.3833997132141",
        "mean_motion": ".2525681585421016",
        "equinox": "J2000",
        "orbit_class": {
            "orbit_class_type": "APO",
            "orbit_class_description": "Near-Earth asteroid orbits which cross the Earth’s orbit similar to that of 1862 Apollo",
            "orbit_class_range": "a (semi-major axis) > 1.0 AU; q (perihelion) < 1.017 AU"
        }
    },
    "is_sentry_object": false
}